{"fetched_at":"2026-07-07T07:58:26.316Z","source":"https://celestrak.org/NORAD/elements/gp.php?NAME=CENTAURI&FORMAT=JSON","constellation":"myriota","records":[{"OBJECT_NAME":"CENTAURI-1","OBJECT_ID":"2018-099BD","EPOCH":"2026-07-06T16:07:11.383392","CLASSIFICATION_TYPE":"U","MEAN_MOTION":15.16569378,"ECCENTRICITY":0.0012441,"INCLINATION":97.4209,"RA_OF_ASC_NODE":238.974,"ARG_OF_PERICENTER":257.9291,"MEAN_ANOMALY":102.0548,"EPHEMERIS_TYPE":0,"NORAD_CAT_ID":43809,"ELEMENT_SET_NO":999,"REV_AT_EPOCH":41545,"BSTAR":0.00023348,"MEAN_MOTION_DOT":0.00004499,"MEAN_MOTION_DDOT":0},{"OBJECT_NAME":"CENTAURI-6","OBJECT_ID":"2024-066K","EPOCH":"2026-07-06T18:29:01.066272","CLASSIFICATION_TYPE":"U","MEAN_MOTION":15.05984076,"ECCENTRICITY":0.0001293,"INCLINATION":45.605,"RA_OF_ASC_NODE":152.2142,"ARG_OF_PERICENTER":237.9391,"MEAN_ANOMALY":122.1367,"EPHEMERIS_TYPE":0,"NORAD_CAT_ID":59451,"ELEMENT_SET_NO":999,"REV_AT_EPOCH":12307,"BSTAR":0.00025722,"MEAN_MOTION_DOT":0.00003561,"MEAN_MOTION_DDOT":0},{"OBJECT_NAME":"CENTAURI-7","OBJECT_ID":"2025-009DD","EPOCH":"2026-07-06T20:02:24.686880","CLASSIFICATION_TYPE":"U","MEAN_MOTION":14.97931369,"ECCENTRICITY":0.0002664,"INCLINATION":97.7083,"RA_OF_ASC_NODE":267.8602,"ARG_OF_PERICENTER":118.6829,"MEAN_ANOMALY":241.4661,"EPHEMERIS_TYPE":0,"NORAD_CAT_ID":62708,"ELEMENT_SET_NO":999,"REV_AT_EPOCH":8040,"BSTAR":0.00032452,"MEAN_MOTION_DOT":0.00003767,"MEAN_MOTION_DDOT":0},{"OBJECT_NAME":"CENTAURI-8","OBJECT_ID":"2025-009DK","EPOCH":"2026-07-06T17:30:58.735008","CLASSIFICATION_TYPE":"U","MEAN_MOTION":14.97900702,"ECCENTRICITY":0.0003093,"INCLINATION":97.7047,"RA_OF_ASC_NODE":267.5834,"ARG_OF_PERICENTER":87.4629,"MEAN_ANOMALY":272.6947,"EPHEMERIS_TYPE":0,"NORAD_CAT_ID":62714,"ELEMENT_SET_NO":999,"REV_AT_EPOCH":8040,"BSTAR":0.00018673,"MEAN_MOTION_DOT":0.00002141,"MEAN_MOTION_DDOT":0}]}
