CENTAURI-1              
1 43809U 18099BD  26187.67165953  .00004499  00000+0  23348-3 0  9995
2 43809  97.4209 238.9740 0012441 257.9291 102.0548 15.16569378415457
CENTAURI-6              
1 59451U 24066K   26187.77015123  .00003561  00000+0  25722-3 0  9997
2 59451  45.6050 152.2142 0001293 237.9391 122.1367 15.05984076123072
CENTAURI-7              
1 62708U 25009DD  26187.83500795  .00003767  00000+0  32452-3 0  9991
2 62708  97.7083 267.8602 0002664 118.6829 241.4661 14.97931369 80401
CENTAURI-8              
1 62714U 25009DK  26187.72984647  .00002141  00000+0  18673-3 0  9992
2 62714  97.7047 267.5834 0003093  87.4629 272.6947 14.97900702 80400
